HORYU-4                 
1 41340U 16012D   20194.29508034  .00000316  00000-0  17158-4 0  9995
2 41340  31.0037 173.5844 0013847  35.5363 324.6193 15.01515973241617
E-ST@R-II               
1 41459U 16025D   20194.76944783  .00001432  00000-0  75010-4 0  9998
2 41459  98.1075 306.0821 0166217 126.3819 235.2839 15.06494829231251
AAUSAT 4                
1 41460U 16025E   20194.73511018  .00001916  00000-0  96125-4 0  9995
2 41460  98.1048 308.4636 0154702 114.9813 246.7589 15.08829546231457
BEESAT-4                
1 41619U 16040W   20194.83487710  .00000911  00000-0  40353-4 0  9996
2 41619  97.3177 253.7671 0012870  90.7158 269.5554 15.24066860213264
CANX-7                  
1 41788U 16059F   20194.81406319  .00006003  00000-0  82060-3 0  9995
2 41788  98.2560 283.2965 0028170 206.6975 153.2780 14.78677404203568
RAVAN                   
1 41849U 16067B   20193.78072468  .00000533  00000-0  49663-4 0  9996
2 41849  97.9348 304.0490 0009681 155.3486 204.8201 14.98571998200262
CELTEE 1                
1 41850U 16067C   20193.26364711  .00000269  00000-0  28500-4 0  9999
2 41850  97.9305 301.1809 0009218 158.3288 201.8325 14.97199137200060
OPTICUBE 04             
1 41851U 16067D   20193.86656974 -.00000093  00000-0 -27608-5 0  9997
2 41851  97.9292 301.3988 0009207 159.1882 200.9716 14.96936740200133
AEROCUBE 8D             
1 41852U 16067E   20194.28391989 -.00000286  00000-0 -19609-4 0  9992
2 41852  97.9289 301.6595 0009924 161.3919 198.7666 14.96921405200173
AEROCUBE 8C             
1 41853U 16067F   20194.51664560  .00000753  00000-0  70897-4 0  9990
2 41853  97.9291 301.7970 0010649 159.8847 200.2796 14.96888309200205
PROMETHEUS 2-1          
1 41854U 16067G   20194.54762519 -.00000292  00000-0 -19953-4 0  9993
2 41854  97.9299 302.1737 0010546 160.8587 199.3032 14.97214065200225
PROMETHEUS 2-3          
1 41855U 16067H   20194.28057205 -.00000286  00000-0 -19417-4 0  9992
2 41855  97.9302 301.9368 0010693 162.1966 197.9632 14.97223755200188
INS-1B                  
1 41954U 17008G   20194.61193539  .00000807  00000-0  35352-4 0  9999
2 41954  97.3528 258.5610 0008264 202.0147 158.0737 15.24829812189205
BGUSAT                  
1 41999U 17008BD  20194.16864004  .00001407  00000-0  54859-4 0  9990
2 41999  97.3646 262.4097 0006920 211.0466 149.0366 15.27584794188723
DIDO-2                  
1 42000U 17008BE  20193.92359556  .00000553  00000-0  25341-4 0  9993
2 42000  97.3535 258.3825 0007129 225.5835 134.4820 15.24508518188493
PEASSS                  
1 42015U 17008BV  20194.07938113  .00000705  00000-0  30506-4 0  9996
2 42015  97.3560 260.1861 0004974 225.5328 134.5504 15.25658594189100
AL-FARABI 1             
1 42016U 17008BW  20193.89022855  .00000952  00000-0  39199-4 0  9994
2 42016  97.3591 261.0848 0004857 224.2017 135.8834 15.26512207189258
NAYIF-1 (EO-88)         
1 42017U 17008BX  20194.65488109  .00000943  00000-0  38806-4 0  9992
2 42017  97.3585 261.8489 0004962 220.2981 139.7890 15.26554996189395
UCLSAT                  
1 42765U 17036A   20193.85219620  .00000685  00000-0  31532-4 0  9996
2 42765  97.2989 247.4371 0009715 305.6473  54.3859 15.23570629170291
LITUANICASAT-2          
1 42768U 17036D   20193.88594544  .00001253  00000-0  54297-4 0  9998
2 42768  97.3046 247.4808 0012847 292.3225  67.6651 15.24149180169561
AALTO-1                 
1 42775U 17036L   20194.83261196  .00000442  00000-0  22401-4 0  9997
2 42775  97.2963 246.1366 0012162 293.2765  66.7191 15.21872779169530
URSA MAIOR              
1 42776U 17036M   20194.16142117  .00000509  00000-0  25220-4 0  9991
2 42776  97.2975 245.7807 0012000 295.6252  64.3744 15.22057859169440
COMPASS 2               
1 42777U 17036N   20194.10776026  .00001032  00000-0  45443-4 0  9999
2 42777  97.3035 248.1072 0010509 293.5496  66.4637 15.23987510169552
DIAMOND RED             
1 42783U 17036U   20194.25211222  .00000596  00000-0  28333-4 0  9997
2 42783  97.2989 247.0686 0010456 306.0523  53.9745 15.22875463169527
PEGASUS                 
1 42784U 17036V   20194.80215538  .00000670  00000-0  31146-4 0  9992
2 42784  97.2993 248.0408 0010276 302.5385  57.4859 15.23260062169634
DIAMOND GREEN           
1 42785U 17036W   20194.64513816  .00000596  00000-0  28332-4 0  9995
2 42785  97.2991 247.4870 0010338 305.2760  54.7509 15.22877083169655
DIAMOND BLUE            
1 42786U 17036X   20194.25010911  .00000598  00000-0  28452-4 0  9996
2 42786  97.2991 247.0982 0010212 307.1615  52.8689 15.22875622169595
NUDTSAT                 
1 42787U 17036Y   20194.96844172  .00001127  00000-0  48529-4 0  9995
2 42787  97.3040 249.6564 0010924 302.4505  57.5676 15.24591577169585
SUCHAI                  
1 42788U 17036Z   20193.89784621  .00000821  00000-0  36952-4 0  9996
2 42788  97.3003 247.7724 0009814 304.3922  55.6387 15.23816882169601
SKCUBE                  
1 42789U 17036AA  20194.20918349  .00000758  00000-0  34476-4 0  9997
2 42789  97.2996 247.9204 0009701 303.5731  56.4579 15.23655892169560
VZLUSAT-1               
1 42790U 17036AB  20194.17005906  .00001059  00000-0  45806-4 0  9995
2 42790  97.3022 248.8739 0009129 301.0854  58.9487 15.24575014169618
ROBUSTA-1B              
1 42792U 17036AD  20194.22558111  .00000813  00000-0  36581-4 0  9991
2 42792  97.2999 248.1954 0009276 304.1367  55.8990 15.23846514169597
CICERO 6                
1 42793U 17036AE  20194.22331730  .00000536  00000-0  25569-4 0  9994
2 42793  97.2974 247.5684 0008685 307.7826  52.2624 15.23178745169630
D-SAT                   
1 42794U 17036AF  20194.73787279 -.00000062  00000-0  22967-6 0  9990
2 42794  97.4917 226.1409 0124509 280.7772  77.9452 14.91290343166466
CORVUS BC2              
1 42846U 17042X   20194.45447243 -.00000115  00000-0 -60951-5 0  9992
2 42846  97.5200  76.8823 0009250 185.2300 174.8824 14.92115254163130
CORVUS BC1              
1 42847U 17042Y   20194.31436053 -.00000046  00000-0  68861-6 0  9996
2 42847  97.5203  76.9226 0008908 184.5909 175.5230 14.92216829163115
MIRATA                  
1 43015U 17073C   20194.22194492  .00000670  00000-0  57553-4 0  9992
2 43015  97.7179 105.4958 0252441 328.1464  30.4688 14.79702973142884
MAKERSAT 0              
1 43016U 17073D   20193.98768445  .00000463  00000-0  41670-4 0  9993
2 43016  97.7215 105.4463 0255255 330.0156  28.6640 14.79254252142837
DELLINGR (RBLE)         
1 43021U 98067NJ  20193.92271089  .00009363  00000-0  76896-4 0  9994
2 43021  51.6345 154.7226 0001739 117.1922 242.9253 15.71263537150717
AEROCUBE 7B (OCSD B)    
1 43042U 17071F   20194.22580119  .00002074  00000-0  54282-4 0  9991
2 43042  51.6382 304.9913 0004762 133.7499 226.3883 15.43755655146205
AEROCUBE 7C (OCSD C)    
1 43043U 17071G   20194.87694735  .00002028  00000-0  53331-4 0  9996
2 43043  51.6382 301.8547 0004923 139.9155 220.2195 15.43733259146273
CHEFSAT                 
1 43044U 17071H   20194.65618406  .00004765  00000-0  95595-4 0  9992
2 43044  51.6379 287.1659 0004282 145.8259 214.3006 15.48693312146454
ASGARDIA 1              
1 43049U 17071N   20194.86974671  .00001872  00000-0  49858-4 0  9996
2 43049  51.6394 301.1333 0002565 150.6400 209.4731 15.43764157146288
ISARA                   
1 43050U 17071P   20194.52587497  .00003769  00000-0  80134-4 0  9996
2 43050  51.6361 290.6677 0002284 153.3050 206.8055 15.47635221146391
PROPCUBE 2 (FAUNA)      
1 43052U 17071R   20194.13652004  .00002148  00000-0  55051-4 0  9992
2 43052  51.6388 303.0041 0002552 145.4442 214.6710 15.44225885146181
CORVUS BC3              
1 43118U 18004H   20194.78144131  .00000450  00000-0  21916-4 0  9997
2 43118  97.4427 264.8467 0009372 332.2136  27.8599 15.23398006138852
MICROMAS-2A             
1 43131U 18004W   20194.77336759  .00001113  00000-0  47006-4 0  9995
2 43131  97.4477 266.6605 0008096 331.7053  28.3744 15.25357010138951
SPACEBEE-4              
1 43139U 18004AE  20194.78561889  .00001664  00000-0  66207-4 0  9993
2 43139  97.4513 267.9159 0007405 333.0259  27.0594 15.26678417139020
SPACEBEE-3              
1 43140U 18004AF  20194.19091046  .00002135  00000-0  81876-4 0  9996
2 43140  97.4530 268.0479 0007053 333.6216  26.4663 15.27598923138973
SPACEBEE-2              
1 43141U 18004AG  20194.49293725  .00002235  00000-0  84788-4 0  9994
2 43141  97.4540 268.6248 0006915 331.4919  28.5941 15.27912678139034
SPACEBEE-1              
1 43142U 18004AH  20194.12741514  .00002542  00000-0  95005-4 0  9994
2 43142  97.4543 268.5344 0006882 332.6894  27.3983 15.28276751138984
CICERO 7                
1 43143U 18004AJ  20194.77392718  .00001033  00000-0  43784-4 0  9995
2 43143  97.4456 266.8378 0006656 344.6394  15.4641 15.25389036138979
GOMX-4B                 
1 43196U 18015E   20194.55976682  .00000191  00000-0  10781-4 0  9994
2 43196  97.4415 322.9069 0019346  21.4946 338.7100 15.24276012135725
GOMX-4A                 
1 43197U 18015F   20194.85704010  .00000390  00000-0  18743-4 0  9999
2 43197  97.4416 323.2983 0019667  20.1983 132.7057 15.24536333135783
UBAKUSAT                
1 43467U 98067NQ  20194.35720273  .00018981  00000-0  12036-3 0  9991
2 43467  51.6386 153.4464 0002645 100.0630  32.3414 15.76565795124032
CUBERRT                 
1 43546U 98067NU  20194.26777173  .00012015  00000-0  85342-4 0  9993
2 43546  51.6322 153.9187 0002358 157.8649 202.2452 15.74392594114153
TEMPEST-D               
1 43547U 98067NV  20194.22323684  .00003073  00000-0  39278-4 0  9995
2 43547  51.6357 186.7946 0004656 141.6597 218.4729 15.62821224113390
RAINCUBE                
1 43548U 98067NW  20194.39260313  .00019925  00000-0  13273-3 0  9992
2 43548  51.6309 161.4585 0002691 156.0467 204.0658 15.75393658114190
HALOSAT                 
1 43549U 98067NX  20194.09078732  .00013928  00000-0  98152-4 0  9999
2 43549  51.6356 164.0376 0002186 155.1937 204.9167 15.74410784113698
